[Satellite]
VERSION=1.1
NAME=ASIASAT 5
NICKNAME=ASIASAT 5
TLE1=1 35696U 09042A   15054.70083123 -.00000333  00000-0  10000-3 0  9997
TLE2=2 35696   0.0428 277.6266 0001851 359.4112 228.9816  1.00272419 20263
